OBJECT_NAME,OBJECT_ID,EPOCH,MEAN_MOTION,ECCENTRICITY,INCLINATION,RA_OF_ASC_NODE,ARG_OF_PERICENTER,MEAN_ANOMALY,EPHEMERIS_TYPE,CLASSIFICATION_TYPE,NORAD_CAT_ID,ELEMENT_SET_NO,REV_AT_EPOCH,BSTAR,MEAN_MOTION_DOT,MEAN_MOTION_DDOT
IRIDIUM 156,2018-061H,2026-06-26T17:53:30.925248,14.34218691,.0002007,86.3954,52.7323,85.6539,274.4886,0,U,43576,999,41474,.68983E-4,.213E-5,0
IRIDIUM 164,2018-061J,2026-06-26T17:26:06.468000,14.34218110,.0002237,86.3954,52.7807,90.3511,269.7941,0,U,43577,999,41478,.24629E-4,.89E-6,0
IRIDIUM 159,2018-061K,2026-06-26T16:40:26.482080,14.34217594,.0002109,86.3947,52.7303,83.7283,276.4153,0,U,43578,999,41474,.83635E-6,.22E-6,0
IRIDIUM 180,2019-002A,2026-06-26T18:20:10.959072,14.34217266,.0002123,86.3971,349.5932,89.2700,270.8739,0,U,43922,999,39036,-.99652E-5,-.8E-7,0
IRIDIUM 176,2019-002B,2026-06-26T17:49:01.485984,14.72226002,.0002423,86.6094,349.5443,88.4016,271.7479,0,U,43923,999,40065,.11427E-3,.745E-5,0
IRIDIUM 168,2019-002C,2026-06-26T18:11:02.515200,14.34216534,.0002236,86.3976,349.6732,90.4570,269.6882,0,U,43924,999,39034,.18432E-4,.71E-6,0
IRIDIUM 173,2019-002D,2026-06-26T17:52:46.944192,14.34217836,.0002162,86.3972,349.5671,88.5487,271.5956,0,U,43925,999,39032,.97728E-5,.47E-6,0
IRIDIUM 169,2019-002E,2026-06-26T13:44:42.532800,14.38607360,.0001677,86.4219,21.2686,82.4882,277.6507,0,U,43926,999,39157,.72238E-4,.241E-5,0
IRIDIUM 172,2019-002F,2026-06-26T17:43:38.826048,14.34216783,.0002134,86.3970,349.5777,89.4943,270.6497,0,U,43927,999,39033,-.6654E-5,.1E-7,0
IRIDIUM 175,2019-002G,2026-06-26T16:51:49.354848,14.43617552,.000371,86.4517,286.5433,154.0348,206.1040,0,U,43928,999,40035,.78054E-4,.285E-5,0
IRIDIUM 171,2019-002H,2026-06-26T17:16:14.912256,14.34217432,.0001976,86.3979,349.8930,93.7864,266.3558,0,U,43929,999,39032,-.92048E-5,-.6E-7,0
IRIDIUM 170,2019-002J,2026-06-26T17:57:55.183104,14.72226493,.0002503,86.6093,349.5441,85.9444,274.2059,0,U,43930,999,40066,.11114E-3,.725E-5,0
IRIDIUM 167,2019-002K,2026-06-26T12:05:42.895680,14.34217427,.0001893,86.3970,349.6984,97.0714,263.0697,0,U,43931,999,39029,-.10041E-4,-.8E-7,0
IRIDIUM 181,2023-068S,2026-06-26T14:30:36.100800,14.43310795,.0002418,86.4491,52.8536,87.7025,272.4453,0,U,56726,999,16379,.70837E-4,.259E-5,0
IRIDIUM 177,2023-068T,2026-06-26T15:38:24.033984,14.80044839,.0002981,86.1999,324.2954,96.3710,263.7850,0,U,56727,999,16776,.12702E-3,.988E-5,0
IRIDIUM 174,2023-068U,2026-06-26T17:40:08.993280,14.72233926,.0002398,86.6101,349.6975,80.5201,279.6287,0,U,56728,999,16742,.11228E-3,.732E-5,0
IRIDIUM 178,2023-068V,2026-06-26T13:45:16.074144,14.80227471,.0002558,86.6534,21.4368,88.9520,271.1995,0,U,56729,999,16775,.12145E-3,.949E-5,0
IRIDIUM 179,2023-068W,2026-06-26T13:37:35.779008,14.80131246,.0003895,86.6837,30.4524,104.9413,255.2240,0,U,56730,999,16775,.95648E-4,.751E-5,0
